OBJECT_NAME,OBJECT_ID,EPOCH,MEAN_MOTION,ECCENTRICITY,INCLINATION,RA_OF_ASC_NODE,ARG_OF_PERICENTER,MEAN_ANOMALY,EPHEMERIS_TYPE,CLASSIFICATION_TYPE,NORAD_CAT_ID,ELEMENT_SET_NO,REV_AT_EPOCH,BSTAR,MEAN_MOTION_DOT,MEAN_MOTION_DDOT
STARLINK-34379,2025-123M,2026-06-29T12:00:02.998944,15.44731865,.0003364,69.9994,222.8985,279.9541,118.9400,0,U,64302,999,588,.13375E-2,.63059E-3,0
STARLINK-34356,2025-123N,2026-06-29T12:27:25.767072,14.98335391,.0003594,70.0012,272.3268,270.1833,89.8914,0,U,64303,999,5837,.1508E-3,.1707E-4,0
STARLINK-34360,2025-123P,2026-06-29T11:57:39.015072,14.98338638,.0003598,70.0014,272.6530,265.8090,94.2658,0,U,64304,999,5836,.24924E-3,.2883E-4,0
STARLINK-34383,2025-123Q,2026-06-29T12:21:41.751648,14.98335139,.0003298,70.0020,272.7109,268.8550,91.2231,0,U,64305,999,5836,.18622E-3,.213E-4,0
STARLINK-34355,2025-123R,2026-06-29T12:15:40.972032,14.98336776,.0004117,70.0014,272.6981,266.8415,93.2273,0,U,64306,999,5836,.37739E-3,.4414E-4,0
STARLINK-34380,2025-123S,2026-06-29T12:09:40.303008,14.98337692,.0003465,70.0020,272.6833,267.5385,92.5377,0,U,64307,999,5836,.30322E-3,.3528E-4,0
STARLINK-34374,2025-123T,2026-06-29T11:51:36.865152,14.98325001,.0003184,70.0012,272.6370,272.4882,87.5913,0,U,64308,999,5836,.8622E-4,.936E-5,0
STARLINK-34370,2025-123U,2026-06-29T13:15:45.140256,14.98337253,.0004043,70.0010,272.4380,268.6912,91.3784,0,U,64309,999,5837,.21507E-3,.2475E-4,0
STARLINK-34357,2025-123V,2026-06-29T12:09:26.142048,14.98336764,.000355,70.0019,272.6876,267.6440,92.4313,0,U,64310,999,5836,.20153E-3,.2313E-4,0
STARLINK-34368,2025-123W,2026-06-29T11:57:24.713280,14.98341909,.0002893,70.0019,272.6495,264.9497,95.1332,0,U,64311,999,5836,.35623E-3,.4161E-4,0
STARLINK-34384,2025-123X,2026-06-29T10:09:15.395040,14.98338348,.000364,70.0010,272.7945,270.0169,90.0573,0,U,64312,999,5835,.22209E-3,.2559E-4,0
STARLINK-34358,2025-123Y,2026-06-29T13:09:30.235104,14.98331296,.0003441,70.0008,272.4285,268.9433,91.1332,0,U,64313,999,5837,.24419E-3,.2822E-4,0
STARLINK-34354,2025-123Z,2026-06-29T12:57:29.020608,14.98336477,.0003683,70.0005,272.3977,267.3392,92.7346,0,U,64314,999,5837,.22142E-3,.255E-4,0
STARLINK-34387,2025-123AA,2026-06-29T12:45:29.661120,14.98330071,.000362,70.0012,272.3695,270.2201,89.8544,0,U,64315,999,5837,.50847E-3,.5979E-4,0
STARLINK-33590,2025-123AB,2026-06-29T12:57:43.333632,14.98336696,.0003645,70.0008,272.3915,269.3531,90.7211,0,U,64316,999,5837,.23006E-3,.2654E-4,0
STARLINK-11736 [DTC],2025-124A,2026-06-28T00:32:38.858208,15.70886678,.00013505,43.0004,84.4580,233.6481,126.4262,0,U,64317,999,6018,.20587972E-2,.273125E-2,0
STARLINK-11673 [DTC],2025-124B,2026-06-28T18:20:47.957280,15.70948746,.00018614,43.0004,79.6881,247.6077,112.4594,0,U,64318,999,6030,.17674225E-2,.2339E-2,0
STARLINK-11671 [DTC],2025-124C,2026-06-28T18:05:29.380128,15.70895583,.00015992,43.0005,79.6024,259.6221,100.4467,0,U,64319,999,6030,.15348114E-2,.201814E-2,0
STARLINK-11594 [DTC],2025-124D,2026-06-28T18:59:00.463776,15.70843802,.00044691,42.9997,79.9001,296.5223,63.5186,0,U,64320,999,6030,.11932713E-2,.155645E-2,0
STARLINK-11596 [DTC],2025-124E,2026-06-28T18:43:42.970944,15.70831369,.00042578,42.9998,79.8149,292.2289,67.8127,0,U,64321,999,6030,.15357483E-2,.20144E-2,0
STARLINK-11747 [DTC],2025-124F,2026-06-28T19:59:58.784064,15.70851613,.00016203,43.0018,79.3463,194.0301,166.0522,0,U,64322,999,6031,.15401927E-2,.202158E-2,0
STARLINK-11728 [DTC],2025-124G,2026-06-29T12:00:02.998944,15.70906194,.0001856,43.0014,74.8783,266.5000,88.7614,0,U,64323,999,603,-.12734E-2,-.161171E-2,0
STARLINK-11696 [DTC],2025-124H,2026-06-28T17:57:50.552928,15.70890435,.00014492,42.9997,79.5573,262.7841,97.2862,0,U,64324,999,6030,.11453002E-2,.149497E-2,0
STARLINK-11698 [DTC],2025-124J,2026-06-28T18:06:47.844288,15.70918772,.00014994,42.9997,79.6060,256.5903,103.4798,0,U,64325,999,6030,.17924524E-2,.237009E-2,0
STARLINK-11674 [DTC],2025-124L,2026-06-28T23:56:26.293056,15.70855192,.00025453,43.0027,77.9802,273.4523,86.6053,0,U,64327,999,6034,.14372877E-2,.188343E-2,0
STARLINK-11707 [DTC],2025-124M,2026-06-28T22:47:48.982272,15.70867683,.00032751,43.0006,78.4905,296.6229,63.4303,0,U,64328,999,6033,.14281549E-2,.187231E-2,0
STARLINK-11734 [DTC],2025-124N,2026-06-28T23:41:08.684448,15.70855743,.00005905,43.0009,77.8934,215.4895,144.5933,0,U,64329,999,6034,.11101777E-2,.144601E-2,0
STARLINK-34252,2025-124P,2026-06-28T13:17:44.150208,15.27586578,.0002147,43.0020,215.7901,262.4448,97.6160,0,U,64330,999,5873,.54193603E-3,.14684E-3,0
STARLINK-34050,2025-124Q,2026-06-28T11:28:46.530912,15.27590790,.00012321,43.0013,216.0733,270.0535,90.0175,0,U,64331,999,5978,.42831967E-3,.11547E-3,0
STARLINK-33782,2025-124R,2026-06-28T19:02:53.909664,15.27624556,.0002857,43.0101,214.1385,334.8475,25.2237,0,U,64332,999,5877,.20071013E-2,.55464E-3,0
STARLINK-34207,2025-124S,2026-06-28T13:12:10.795680,15.27587318,.00022684,43.0052,215.7540,264.9742,95.0851,0,U,64333,999,5873,.30773725E-3,.8217E-4,0
STARLINK-34260,2025-124T,2026-06-28T13:23:18.483648,15.27537446,.00017854,43.0021,215.8141,261.5921,98.4728,0,U,64334,999,5873,.90962268E-3,.24821E-3,0
STARLINK-33855,2025-124U,2026-06-29T12:13:04.429056,15.27582457,.0000724,42.9975,210.0412,274.2236,85.8533,0,U,64335,999,5888,.31666E-3,.8463E-4,0
STARLINK-34223,2025-124V,2026-06-29T11:57:07.732224,15.27597720,.0001208,42.9991,206.4995,1.0574,359.0280,0,U,64336,999,5892,.75522E-3,.20589E-3,0
STARLINK-34216,2025-124W,2026-06-29T11:52:42.599136,15.27605851,.0000961,42.9974,209.9384,271.0766,88.9975,0,U,64337,999,5888,.68073E-3,.18532E-3,0
STARLINK-34218,2025-124X,2026-06-28T18:58:03.184896,15.27582961,.00017755,43.0001,210.6541,267.8464,92.2184,0,U,64338,999,5881,.42263082E-3,.11387E-3,0
STARLINK-34017,2025-124Y,2026-06-28T19:14:00.245472,15.27592960,.00018188,42.9981,214.1925,266.9086,93.1558,0,U,64339,999,5877,.61289543E-3,.16648E-3,0
STARLINK-33977,2025-126A,2026-06-28T21:53:47.117760,14.98342358,.00030293,70.0011,113.9624,266.1688,93.9125,0,U,64344,999,5855,.41103047E-3,.4816E-4,0
STARLINK-34426,2025-126B,2026-06-28T21:47:32.502048,14.98335471,.00027891,70.0009,113.9420,260.6426,99.4418,0,U,64345,999,5734,.2141557E-3,.2464E-4,0
STARLINK-34437,2025-126C,2026-06-29T03:18:00.876960,14.98341952,.0002948,70.0012,113.5414,268.7170,91.3652,0,U,64346,999,5737,.41767E-3,.4896E-4,0
STARLINK-34407,2025-126D,2026-06-29T03:24:14.672736,14.98369594,.0003677,69.9994,113.5485,262.2840,97.7901,0,U,64347,999,5737,.99813E-3,.11849E-3,0
STARLINK-34274,2025-126E,2026-06-29T03:42:03.815712,14.98344890,.0003472,70.0016,113.6009,259.4591,100.6177,0,U,64348,999,5737,.19469E-3,.2232E-4,0
STARLINK-34301,2025-126F,2026-06-28T21:53:33.105408,14.98336259,.00031903,70.0009,113.9568,261.7325,98.3472,0,U,64349,999,5734,.2505397E-3,.2898E-4,0
STARLINK-34425,2025-126G,2026-06-29T03:12:00.503424,14.98335867,.0003069,70.0013,113.5240,267.6997,92.3811,0,U,64350,999,5737,.26959E-3,.3126E-4,0
STARLINK-34389,2025-126H,2026-06-28T22:05:49.666272,14.98348226,.00033066,70.0010,113.9822,264.7494,95.3288,0,U,64351,999,5734,.47729375E-3,.5609E-4,0
STARLINK-34385,2025-126J,2026-06-29T03:30:02.513952,14.98336882,.0003378,70.0013,113.5703,261.6860,98.3916,0,U,64352,999,5737,.30766E-3,.358E-4,0
STARLINK-34431,2025-126K,2026-06-28T21:47:46.932576,14.98337502,.00025753,70.0010,113.9453,267.5704,92.5161,0,U,64353,999,5734,.32719941E-3,.3814E-4,0
STARLINK-34473,2025-126L,2026-06-28T22:05:34.272384,14.98335797,.00035625,70.0011,113.9877,269.0891,90.9859,0,U,64354,999,5734,.19863316E-3,.2278E-4,0
STARLINK-34270,2025-126M,2026-06-28T22:11:34.940544,14.98332522,.00029263,70.0012,114.0001,265.5962,94.4863,0,U,64355,999,5854,.88894757E-4,.968E-5,0
STARLINK-34397,2025-126N,2026-06-29T03:36:03.458592,14.98332900,.0003479,70.0012,113.5813,269.1307,90.9454,0,U,64356,999,5737,.51809E-3,.6095E-4,0
STARLINK-34454,2025-126P,2026-06-29T03:42:18.285120,14.98330296,.0003114,70.0011,113.5945,268.2866,91.7937,0,U,64357,999,5737,.24409E-3,.2821E-4,0
STARLINK-34436,2025-126Q,2026-06-28T23:11:53.614464,14.98331709,.00029992,70.0008,113.7401,269.9799,90.1017,0,U,64358,999,5735,.11087338E-3,.123E-4,0
STARLINK-34291,2025-126R,2026-06-28T21:59:48.012288,14.98336735,.0002643,70.0011,113.9655,264.5870,95.4987,0,U,64359,999,5734,.25885154E-3,.2997E-4,0
STARLINK-34458,2025-126S,2026-06-28T22:11:49.309728,14.98334334,.00028092,70.0011,113.9971,261.3656,98.7185,0,U,64360,999,5734,.17476977E-3,.1993E-4,0
STARLINK-34243,2025-126T,2026-06-28T22:17:35.725344,14.98336908,.00031433,70.0013,114.0148,262.8055,97.2747,0,U,64361,999,5734,.28655562E-3,.3328E-4,0
STARLINK-34335,2025-126U,2026-06-28T21:41:32.138880,14.98343500,.00030489,70.0010,113.9275,261.6244,98.4569,0,U,64362,999,5734,.48204884E-3,.5665E-4,0
STARLINK-34408,2025-126V,2026-06-28T23:05:38.660928,14.98335542,.00028165,70.0011,113.7292,258.1905,101.8939,0,U,64363,999,5735,.24453695E-3,.2826E-4,0
STARLINK-34476,2025-126W,2026-06-28T21:59:33.668160,14.98335625,.00029248,70.0010,113.9692,268.5464,91.5360,0,U,64364,999,5734,.19666733E-3,.2255E-4,0
STARLINK-34479,2025-126X,2026-06-28T22:59:40.305696,14.98335212,.00028646,70.0011,114.1136,263.3123,96.7710,0,U,64365,999,5734,.25859645E-3,.2994E-4,0
STARLINK-34484,2025-126Y,2026-06-28T23:11:39.246144,14.98335445,.00029698,70.0009,113.7401,266.3260,93.7560,0,U,64366,999,5856,.24212994E-3,.2798E-4,0
STARLINK-34483,2025-126Z,2026-06-28T21:41:46.692960,14.98352867,.00028832,70.0011,113.9221,257.2135,102.8702,0,U,64367,999,5734,.53292248E-3,.6275E-4,0
STARLINK-34457,2025-126AA,2026-06-29T03:24:02.276064,14.98328350,.0002909,70.0019,113.5514,265.1790,94.9037,0,U,64368,999,5737,.16759E-3,.1907E-4,0
STARLINK-34444,2025-126AB,2026-06-29T03:30:16.775136,14.98335437,.0003018,70.0012,113.5648,268.0564,92.0249,0,U,64369,999,5737,.24247E-3,.2802E-4,0
STARLINK-11732 [DTC],2025-127A,2026-06-28T14:11:21.884928,15.71055111,.00019835,43.0002,136.1202,37.0784,323.0220,0,U,64370,999,6094,.13952416E-2,.184266E-2,0
